{"type": "FeatureCollection", "features": [ {"type": "Feature", "properties": {"norad_id": 37867, "name": "COSMOS 2476 (744)", "group": "gnss", "lat": -33.90917244098342, "lon": -82.57470376115036, "alt_km": 19075.29545906997, "timestamp": "2025-12-08T17:43:05.171188+00:00", "meta": {"OBJECT_NAME": "COSMOS 2476 (744)", "OBJECT_ID": "2011-064A", "EPOCH": "2025-12-07T12:05:38.490144", "MEAN_MOTION": 2.13101284, "ECCENTRICITY": 0.0024092, "INCLINATION": 65.1595, "RA_OF_ASC_NODE": 79.3486, "ARG_OF_PERICENTER": 233.8995, "MEAN_ANOMALY": 117.1284, "EPHEMERIS_TYPE": 0, "CLASSIFICATION_TYPE": "U", "NORAD_CAT_ID": 37867, "ELEMENT_SET_NO": 999, "REV_AT_EPOCH": 10967, "BSTAR": 0, "MEAN_MOTION_DOT": -1.2e-07, "MEAN_MOTION_DDOT": 0}, "tle": {"line1": "1 37867U 11064A   25341.50391771 -.00000012  00000+0  00000+0 0  9993", "line2": "2 37867  65.1595  79.3486 0024092 233.8995 117.1284  2.13101284109676"}}, "geometry": {"type": "Point", "coordinates": [-82.57470376115036, -33.90917244098342]}}, {"type": "Feature", "properties": {"norad_id": 37868, "name": "COSMOS 2477 (745)", "group": "gnss", "lat": 34.777271861172586, "lon": 98.11798880916858, "alt_km": 19177.902961050702, "timestamp": "2025-12-08T17:43:05.171201+00:00", "meta": {"OBJECT_NAME": "COSMOS 2477 (745)", "OBJECT_ID": "2011-064B", "EPOCH": "2025-12-08T06:12:22.664160", "MEAN_MOTION": 2.13102704, "ECCENTRICITY": 0.0021182, "INCLINATION": 65.1663, "RA_OF_ASC_NODE": 79.4007, "ARG_OF_PERICENTER": 234.576, "MEAN_ANOMALY": 156.3219, "EPHEMERIS_TYPE": 0, "CLASSIFICATION_TYPE": "U", "NORAD_CAT_ID": 37868, "ELEMENT_SET_NO": 999, "REV_AT_EPOCH": 10969, "BSTAR": 0, "MEAN_MOTION_DOT": -1.1e-07, "MEAN_MOTION_DDOT": 0}, "tle": {"line1": "1 37868U 11064B   25342.25859565 -.00000011  00000+0  00000+0 0  9996", "line2": "2 37868  65.1663  79.4007 0021182 234.5760 156.3219  2.13102704109691"}}, "geometry": {"type": "Point", "coordinates": [98.11798880916858, 34.777271861172586]}}, {"type": "Feature", "properties": {"norad_id": 37869, "name": "COSMOS 2475 (743)", "group": "gnss", "lat": -4.434578664627167, "lon": 77.35677165708528, "alt_km": 19150.093692822582, "timestamp": "2025-12-08T17:43:05.171213+00:00", "meta": {"OBJECT_NAME": "COSMOS 2475 (743)", "OBJECT_ID": "2011-064C", "EPOCH": "2025-12-07T08:11:48.953184", "MEAN_MOTION": 2.13101364, "ECCENTRICITY": 0.00262336, "INCLINATION": 65.1729, "RA_OF_ASC_NODE": 79.4516, "ARG_OF_PERICENTER": 248.5614, "MEAN_ANOMALY": 114.7737, "EPHEMERIS_TYPE": 0, "CLASSIFICATION_TYPE": "U", "NORAD_CAT_ID": 37869, "ELEMENT_SET_NO": 999, "REV_AT_EPOCH": 10968, "BSTAR": 0, "MEAN_MOTION_DOT": -1.3e-07, "MEAN_MOTION_DDOT": 0}, "tle": {"line1": "1 37869U 11064C   25341.34153881 -.00000013  00000+0  00000+0 0  9996", "line2": "2 37869  65.1729  79.4516 0026233 248.5614 114.7737  2.13101364109688"}}, "geometry": {"type": "Point", "coordinates": [77.35677165708528, -4.434578664627167]}}, {"type": "Feature", "properties": {"norad_id": 37948, "name": "BEIDOU-2 IGSO-5 (C10)", "group": "gnss", "lat": 13.827698131932179, "lon": 81.11004883759999, "alt_km": 35549.036321029365, "timestamp": "2025-12-08T17:43:05.171225+00:00", "meta": {"OBJECT_NAME": "BEIDOU-2 IGSO-5 (C10)", "OBJECT_ID": "2011-073A", "EPOCH": "2025-12-07T19:12:14.882400", "MEAN_MOTION": 1.00291658, "ECCENTRICITY": 0.01104068, "INCLINATION": 48.0298, "RA_OF_ASC_NODE": 273.9181, "ARG_OF_PERICENTER": 222.1784, "MEAN_ANOMALY": 321.4594, "EPHEMERIS_TYPE": 0, "CLASSIFICATION_TYPE": "U", "NORAD_CAT_ID": 37948, "ELEMENT_SET_NO": 999, "REV_AT_EPOCH": 5121, "BSTAR": 0, "MEAN_MOTION_DOT": -1.91e-06, "MEAN_MOTION_DDOT": 0}, "tle": {"line1": "1 37948U 11073A   25341.80017225 -.00000191  00000+0  00000+0 0  9993", "line2": "2 37948  48.0298 273.9181 0110406 222.1784 321.4594  1.00291658 51212"}}, "geometry": {"type": "Point", "coordinates": [81.11004883759999, 13.827698131932179]}}, {"type": "Feature", "properties": {"norad_id": 37951, "name": "LUCH 5A (SDCM/PRN 140)", "group": "gnss", "lat": 7.951581242817078, "lon": 150.3173629948072, "alt_km": 35790.34918113508, "timestamp": "2025-12-08T17:43:05.171248+00:00", "meta": {"OBJECT_NAME": "LUCH 5A (SDCM/PRN 140)", "OBJECT_ID": "2011-074B", "EPOCH": "2025-12-08T02:24:46.879776", "MEAN_MOTION": 1.00273995, "ECCENTRICITY": 0.00058066, "INCLINATION": 8.268, "RA_OF_ASC_NODE": 76.6526, "ARG_OF_PERICENTER": 177.7321, "MEAN_ANOMALY": 25.9429, "EPHEMERIS_TYPE": 0, "CLASSIFICATION_TYPE": "U", "NORAD_CAT_ID": 37951, "ELEMENT_SET_NO": 999, "REV_AT_EPOCH": 5113, "BSTAR": 0, "MEAN_MOTION_DOT": -4.9e-07, "MEAN_MOTION_DDOT": 0}, "tle": {"line1": "1 37951U 11074B   25342.10054259 -.00000049  00000+0  00000+0 0  9992", "line2": "2 37951   8.2680  76.6526 0005806 177.7321  25.9429  1.00273995 51137"}}, "geometry": {"type": "Point", "coordinates": [150.3173629948072, 7.951581242817078]}}, {"type": "Feature", "properties": {"norad_id": 38091, "name": "BEIDOU-2 G5 (C05)", "group": "gnss", "lat": -1.452518645607464, "lon": 42.42578293497693, "alt_km": 35799.333794036014, "timestamp": "2025-12-08T17:43:05.171260+00:00", "meta": {"OBJECT_NAME": "BEIDOU-2 G5 (C05)", "OBJECT_ID": "2012-008A", "EPOCH": "2025-12-08T03:36:39.993696", "MEAN_MOTION": 1.00274017, "ECCENTRICITY": 0.00125312, "INCLINATION": 3.0977, "RA_OF_ASC_NODE": 70.7225, "ARG_OF_PERICENTER": 226.8008, "MEAN_ANOMALY": 252.5412, "EPHEMERIS_TYPE": 0, "CLASSIFICATION_TYPE": "U", "NORAD_CAT_ID": 38091, "ELEMENT_SET_NO": 999, "REV_AT_EPOCH": 5045, "BSTAR": 0, "MEAN_MOTION_DOT": 5.8e-07, "MEAN_MOTION_DDOT": 0}, "tle": {"line1": "1 38091U 12008A   25342.15046289  .00000058  00000+0  00000+0 0  9994", "line2": "2 38091   3.0977  70.7225 0012531 226.8008 252.5412  1.00274017 50457"}}, "geometry": {"type": "Point", "coordinates": [42.42578293497693, -1.452518645607464]}}, {"type": "Feature", "properties": {"norad_id": 38250, "name": "BEIDOU-2 M3 (C11)", "group": "gnss", "lat": 49.444876503044405, "lon": 79.03912881867656, "alt_km": 21586.681776142887, "timestamp": "2025-12-08T17:43:05.171273+00:00", "meta": {"OBJECT_NAME": "BEIDOU-2 M3 (C11)", "OBJECT_ID": "2012-018A", "EPOCH": "2025-12-05T21:12:32.531040", "MEAN_MOTION": 1.86229708, "ECCENTRICITY": 0.00244284, "INCLINATION": 55.926, "RA_OF_ASC_NODE": 311.388, "ARG_OF_PERICENTER": 273.8805, "MEAN_ANOMALY": 85.8231, "EPHEMERIS_TYPE": 0, "CLASSIFICATION_TYPE": "U", "NORAD_CAT_ID": 38250, "ELEMENT_SET_NO": 999, "REV_AT_EPOCH": 9234, "BSTAR": 0, "MEAN_MOTION_DOT": -7e-07, "MEAN_MOTION_DDOT": 0}, "tle": {"line1": "1 38250U 12018A   25339.88370985 -.00000070  00000+0  00000+0 0  9996", "line2": "2 38250  55.9260 311.3880 0024428 273.8805  85.8231  1.86229708 92342"}}, "geometry": {"type": "Point", "coordinates": [79.03912881867656, 49.444876503044405]}}, {"type": "Feature", "properties": {"norad_id": 38251, "name": "BEIDOU-2 M4 (C12)", "group": "gnss", "lat": 17.184690996169277, "lon": 118.38090688301563, "alt_km": 21546.86481757653, "timestamp": "2025-12-08T17:43:05.171287+00:00", "meta": {"OBJECT_NAME": "BEIDOU-2 M4 (C12)", "OBJECT_ID": "2012-018B", "EPOCH": "2025-12-07T23:07:34.804992", "MEAN_MOTION": 1.86229443, "ECCENTRICITY": 0.00155166, "INCLINATION": 55.8258, "RA_OF_ASC_NODE": 310.5475, "ARG_OF_PERICENTER": 277.4657, "MEAN_ANOMALY": 82.3439, "EPHEMERIS_TYPE": 0, "CLASSIFICATION_TYPE": "U", "NORAD_CAT_ID": 38251, "ELEMENT_SET_NO": 999, "REV_AT_EPOCH": 9238, "BSTAR": 0, "MEAN_MOTION_DOT": -7.1e-07, "MEAN_MOTION_DDOT": 0}, "tle": {"line1": "1 38251U 12018B   25341.96359728 -.00000071  00000+0  00000+0 0  9992", "line2": "2 38251  55.8258 310.5475 0015516 277.4657  82.3439  1.86229443 92385"}}, "geometry": {"type": "Point", "coordinates": [118.38090688301563, 17.184690996169277]}}, {"type": "Feature", "properties": {"norad_id": 38652, "name": "SES-5 (EGNOS/PRN 136)", "group": "gnss", "lat": 0.04369337556759299, "lon": -11.487141588395328, "alt_km": 35786.14855210529, "timestamp": "2025-12-08T17:43:05.171302+00:00", "meta": {"OBJECT_NAME": "SES-5 (EGNOS/PRN 136)", "OBJECT_ID": "2012-036A", "EPOCH": "2025-12-08T03:21:18.963648", "MEAN_MOTION": 1.00271915, "ECCENTRICITY": 0.00021785, "INCLINATION": 0.0583, "RA_OF_ASC_NODE": 304.6368, "ARG_OF_PERICENTER": 312.9253, "MEAN_ANOMALY": 234.8974, "EPHEMERIS_TYPE": 0, "CLASSIFICATION_TYPE": "U", "NORAD_CAT_ID": 38652, "ELEMENT_SET_NO": 999, "REV_AT_EPOCH": 4255, "BSTAR": 0, "MEAN_MOTION_DOT": 3.7e-07, "MEAN_MOTION_DDOT": 0}, "tle": {"line1": "1 38652U 12036A   25342.13980282  .00000037  00000+0  00000+0 0  9993", "line2": "2 38652   0.0583 304.6368 0002178 312.9253 234.8974  1.00271915 42554"}}, "geometry": {"type": "Point", "coordinates": [-11.487141588395328, 0.04369337556759299]}}, {"type": "Feature", "properties": {"norad_id": 38775, "name": "BEIDOU-2 M6 (C14)", "group": "gnss", "lat": -5.705575056560615, "lon": 65.40335786431551, "alt_km": 21498.742823669676, "timestamp": "2025-12-08T17:43:05.171325+00:00", "meta": {"OBJECT_NAME": "BEIDOU-2 M6 (C14)", "OBJECT_ID": "2012-050B", "EPOCH": "2025-12-06T01:31:40.709568", "MEAN_MOTION": 1.86230702, "ECCENTRICITY": 0.00109743, "INCLINATION": 56.3728, "RA_OF_ASC_NODE": 69.289, "ARG_OF_PERICENTER": 345.7667, "MEAN_ANOMALY": 14.2153, "EPHEMERIS_TYPE": 0, "CLASSIFICATION_TYPE": "U", "NORAD_CAT_ID": 38775, "ELEMENT_SET_NO": 999, "REV_AT_EPOCH": 8971, "BSTAR": 0, "MEAN_MOTION_DOT": -4.7e-07, "MEAN_MOTION_DDOT": 0}, "tle": {"line1": "1 38775U 12050B   25340.06366562 -.00000047  00000+0  00000+0 0  9996", "line2": "2 38775  56.3728  69.2890 0010974 345.7667  14.2153  1.86230702 89716"}}, "geometry": {"type": "Point", "coordinates": [65.40335786431551, -5.705575056560615]}}]}